[{"OBJECT_NAME":"HAWK-11C","OBJECT_ID":"2024-247E","EPOCH":"2026-03-09T12:17:35.407968","MEAN_MOTION":15.2884802,"ECCENTRICITY":0.00059001,"INCLINATION":45.0045,"RA_OF_ASC_NODE":114.8762,"ARG_OF_PERICENTER":329.704,"MEAN_ANOMALY":30.3502,"EPHEMERIS_TYPE":0,"CLASSIFICATION_TYPE":"U","NORAD_CAT_ID":62381,"ELEMENT_SET_NO":999,"REV_AT_EPOCH":6774,"BSTAR":0.00033290115,"MEAN_MOTION_DOT":9.223e-5,"MEAN_MOTION_DDOT":0},{"OBJECT_NAME":"STARLINK-34784","OBJECT_ID":"2025-195A","EPOCH":"2026-03-09T22:20:33.330912","MEAN_MOTION":15.30206262,"ECCENTRICITY":0.00011178,"INCLINATION":53.1579,"RA_OF_ASC_NODE":256.8535,"ARG_OF_PERICENTER":57.015,"MEAN_ANOMALY":303.0958,"EPHEMERIS_TYPE":0,"CLASSIFICATION_TYPE":"U","NORAD_CAT_ID":65458,"ELEMENT_SET_NO":999,"REV_AT_EPOCH":3003,"BSTAR":0.001106213,"MEAN_MOTION_DOT":0.00032554,"MEAN_MOTION_DDOT":0}]
